[
  {
    "OBJECT_NAME": "BEIDOU-2 G8 (C01)",
    "OBJECT_ID": "2019-027A",
    "EPOCH": "2026-06-27T13:11:33.286848",
    "MEAN_MOTION": 1.00268721,
    "ECCENTRICITY": 0.0009873,
    "INCLINATION": 1.6846,
    "RA_OF_ASC_NODE": 74.5245,
    "ARG_OF_PERICENTER": 285.0958,
    "MEAN_ANOMALY": 258.4021,
    "EPHEMERIS_TYPE": 0,
    "CLASSIFICATION_TYPE": "U",
    "NORAD_CAT_ID": 44231,
    "ELEMENT_SET_NO": 999,
    "REV_AT_EPOCH": 2618,
    "BSTAR": 0,
    "MEAN_MOTION_DOT": -2.38e-06,
    "MEAN_MOTION_DDOT": 0
  },
  {
    "OBJECT_NAME": "BEIDOU-2 IGSO-1 (C06)",
    "OBJECT_ID": "2010-036A",
    "EPOCH": "2026-06-26T21:36:35.093088",
    "MEAN_MOTION": 1.00269877,
    "ECCENTRICITY": 0.0059014,
    "INCLINATION": 54.305,
    "RA_OF_ASC_NODE": 162.8716,
    "ARG_OF_PERICENTER": 225.31,
    "MEAN_ANOMALY": 318.5305,
    "EPHEMERIS_TYPE": 0,
    "CLASSIFICATION_TYPE": "U",
    "NORAD_CAT_ID": 36828,
    "ELEMENT_SET_NO": 999,
    "REV_AT_EPOCH": 5819,
    "BSTAR": 0,
    "MEAN_MOTION_DOT": -5.7e-07,
    "MEAN_MOTION_DDOT": 0
  },
  {
    "OBJECT_NAME": "BEIDOU-3 M1 (C19)",
    "OBJECT_ID": "2017-069A",
    "EPOCH": "2026-06-26T06:16:16.154976",
    "MEAN_MOTION": 1.86231403,
    "ECCENTRICITY": 0.0009932,
    "INCLINATION": 56.7,
    "RA_OF_ASC_NODE": 62.7851,
    "ARG_OF_PERICENTER": 326.5159,
    "MEAN_ANOMALY": 33.464,
    "EPHEMERIS_TYPE": 0,
    "CLASSIFICATION_TYPE": "U",
    "NORAD_CAT_ID": 43001,
    "ELEMENT_SET_NO": 999,
    "REV_AT_EPOCH": 5877,
    "BSTAR": 0,
    "MEAN_MOTION_DOT": -8.6e-07,
    "MEAN_MOTION_DDOT": 0
  },
  {
    "OBJECT_NAME": "BEIDOU-3 M2 (C20)",
    "OBJECT_ID": "2017-069B",
    "EPOCH": "2026-06-26T04:48:06.055776",
    "MEAN_MOTION": 1.86230727,
    "ECCENTRICITY": 0.0008922,
    "INCLINATION": 56.6993,
    "RA_OF_ASC_NODE": 62.8231,
    "ARG_OF_PERICENTER": 352.8542,
    "MEAN_ANOMALY": 7.1754,
    "EPHEMERIS_TYPE": 0,
    "CLASSIFICATION_TYPE": "U",
    "NORAD_CAT_ID": 43002,
    "ELEMENT_SET_NO": 999,
    "REV_AT_EPOCH": 5876,
    "BSTAR": 0,
    "MEAN_MOTION_DOT": -8.6e-07,
    "MEAN_MOTION_DDOT": 0
  },
  {
    "OBJECT_NAME": "BEIDOU-3 M3 (C21)",
    "OBJECT_ID": "2018-018B",
    "EPOCH": "2026-06-24T05:57:27.884160",
    "MEAN_MOTION": 1.86231188,
    "ECCENTRICITY": 0.00083319,
    "INCLINATION": 56.657,
    "RA_OF_ASC_NODE": 62.9189,
    "ARG_OF_PERICENTER": 342.5104,
    "MEAN_ANOMALY": 17.4973,
    "EPHEMERIS_TYPE": 0,
    "CLASSIFICATION_TYPE": "U",
    "NORAD_CAT_ID": 43208,
    "ELEMENT_SET_NO": 999,
    "REV_AT_EPOCH": 5687,
    "BSTAR": 0,
    "MEAN_MOTION_DOT": -9.5e-07,
    "MEAN_MOTION_DDOT": 0
  },
  {
    "OBJECT_NAME": "BEIDOU-3 M10 (C30)",
    "OBJECT_ID": "2018-029B",
    "EPOCH": "2026-06-26T13:09:29.023776",
    "MEAN_MOTION": 1.86229311,
    "ECCENTRICITY": 0.00038094,
    "INCLINATION": 54.1821,
    "RA_OF_ASC_NODE": 299.647,
    "ARG_OF_PERICENTER": 41.5678,
    "MEAN_ANOMALY": 318.4573,
    "EPHEMERIS_TYPE": 0,
    "CLASSIFICATION_TYPE": "U",
    "NORAD_CAT_ID": 43246,
    "ELEMENT_SET_NO": 999,
    "REV_AT_EPOCH": 5605,
    "BSTAR": 0,
    "MEAN_MOTION_DOT": -9.8e-07,
    "MEAN_MOTION_DDOT": 0
  }
]
